NAVSTAR 48 (USA 151)    
1 26407U 00040A   26158.31592448  .00000043  00000+0  00000+0 0  9996
2 26407  54.8526 215.5546 0121167 302.4176  54.0267  2.00557625189745
NAVSTAR 51 (USA 166)    
1 27663U 03005A   26157.61055816  .00000039  00000+0  00000+0 0  9995
2 27663  54.8837 215.3893 0147927  53.0597 289.9583  2.00561160171094
NAVSTAR 54 (USA 177)    
1 28190U 04009A   26158.43265556 -.00000037  00000+0  00000+0 0  9990
2 28190  54.8381 276.0816 0115728 172.6752 197.2914  2.00555065162757
NAVSTAR 56 (USA 180)    
1 28474U 04045A   26157.61624774 -.00000060  00000+0  00000+0 0  9991
2 28474  55.1431 325.3218 0169819 316.1364 249.3155  2.00555491158215
NAVSTAR 57 (USA 183)    
1 28874U 05038A   26158.40402624 -.00000035  00000+0  00000+0 0  9996
2 28874  54.8864 273.5725 0127805 296.0848  81.4655  2.00566372151644
INMARSAT 4-F2           
1 28899U 05044A   26158.52197777 -.00000247  00000+0  00000+0 0  9998
2 28899   5.0815  43.7092 0003062  32.4899 151.1264  1.00271695 75427
NAVSTAR 58 (USA 190)    
1 29486U 06042A   26157.27303984  .00000092  00000+0  00000+0 0  9997
2 29486  54.7093 151.7723 0106366  54.1524 125.0487  2.00570539144173
NAVSTAR 59 (USA 192)    
1 29601U 06052A   26157.94797652  .00000043  00000+0  00000+0 0  9996
2 29601  54.9360 214.4122 0085329  90.7654 270.2902  2.00557676143201
NAVSTAR 60 (USA 196)    
1 32260U 07047A   26158.25285660 -.00000010  00000+0  00000+0 0  9997
2 32260  54.0881  80.4752 0166381  87.1871 274.7184  2.00555752136615
COSMOS 2433 [GLONASS-M] 
1 32275U 07052A   26156.18418551 -.00000033  00000+0  00000+0 0  9991
2 32275  65.5837 316.3372 0002032 188.6368 171.3540  2.13104472144809
COSMOS 2432 [GLONASS-M] 
1 32276U 07052B   26158.36807414 -.00000028  00000+0  00000+0 0  9998
2 32276  65.5988 316.3913 0007904 333.9819 205.3375  2.13103428144878
NAVSTAR 61 (USA 199)    
1 32384U 07062A   26157.55667037 -.00000033  00000+0  00000+0 0  9990
2 32384  55.0405 274.5802 0035537 164.9421 179.5942  2.00559492135292
COSMOS 2434 [GLONASS-M] 
1 32393U 07065A   26158.24705932  .00000085  00000+0  00000+0 0  9993
2 32393  64.3173 192.2510 0001095 341.2525  51.1973  2.13101527143560
COSMOS 2436 [GLONASS-M] 
1 32395U 07065C   26158.11793726  .00000084  00000+0  00000+0 0  9998
2 32395  64.3258 192.3275 0017143 354.6115  71.1402  2.13100381143510
NAVSTAR 62 (USA 201)    
1 32711U 08012A   26158.16506149  .00000100  00000+0  00000+0 0  9998
2 32711  54.4960 150.3251 0211068 247.7180 110.0351  2.00572183133554
NAVSTAR 64 (USA 206)    
1 35752U 09043A   26158.30629850 -.00000068  00000+0  00000+0 0  9996
2 35752  56.2042  27.8399 0053706  82.7895  29.7266  2.00554832123165
COSMOS 2456 [GLONASS-M] 
1 36111U 09070A   26156.36211172 -.00000011  00000+0  00000+0 0  9992
2 36111  65.0050  71.3748 0005034 326.0196 218.4437  2.13103930128179
COSMOS 2457 [GLONASS-M] 
1 36112U 09070B   26157.12491642 -.00000011  00000+0  00000+0 0  9990
2 36112  64.9908  71.1931 0002355 128.2260  48.9476  2.13101386128193
COSMOS 2460 [GLONASS-M] 
1 36402U 10007C   26156.93373906 -.00000030  00000+0  00000+0 0  9995
2 36402  65.4275 314.8474 0002122 103.7485 288.7249  2.13101712126492
NAVSTAR 65 (USA 213)    
1 36585U 10022A   26157.59368921  .00000048  00000+0  00000+0 0  9996
2 36585  54.2711 208.9891 0126320  66.1226  10.1575  2.00561927117384
BEIDOU-2 IGSO-1         
1 36828U 10036A   26158.43838410 -.00000047  00000+0  00000+0 0  9990
2 36828  54.3007 163.0477 0059187 225.1050 133.1630  1.00275489 57994
BEIDOU-2 G4             
1 37210U 10057A   26158.51433499 -.00000098  00000+0  00000+0 0  9992
2 37210   3.6223  69.0031 0004804 201.6695 330.4228  1.00272171 57190
BEIDOU-2 IGSO-2         
1 37256U 10068A   26157.74761939 -.00000212  00000+0  00000+0 0  9999
2 37256  47.5684 271.9632 0054983 212.5902 147.2585  1.00287050 56690
BEIDOU-2 IGSO-3         
1 37384U 11013A   26155.63444529 -.00000179  00000+0  00000+0 0  9993
2 37384  62.3902  40.2715 0034446 185.4993   3.7397  1.00271497 55536
GSAT-8                  
1 37605U 11022A   26158.21393000  .00000099  00000+0  00000+0 0  9993
2 37605   2.1044  81.9456 0002207 213.0361  92.7290  1.00270799 53118
BEIDOU-2 IGSO-4         
1 37763U 11038A   26156.01309722  .00000056  00000+0  00000+0 0  9992
2 37763  54.5979 165.7814 0159001 231.3624 313.8818  1.00287701 54520
GSAT0101 (GALILEO-PFM)  
1 37846U 11060A   26157.28990272 -.00000066  00000+0  00000+0 0  9997
2 37846  56.9979 342.0567 0003295  48.4785 311.5631  1.70475774 90930
GSAT0102 (GALILEO-FM2)  
1 37847U 11060B   26158.40220002 -.00000063  00000+0  00000+0 0  9997
2 37847  57.0009 342.0270 0003434  13.7700 354.5257  1.70476015 90968
COSMOS 2476 [GLONASS-M] 
1 37867U 11064A   26158.36302253 -.00000011  00000+0  00000+0 0  9990
2 37867  65.2648  73.2028 0023082 239.6150 308.2205  2.13104068113557
COSMOS 2477 [GLONASS-M] 
1 37868U 11064B   26156.66858627 -.00000008  00000+0  00000+0 0  9999
2 37868  65.2705  73.3389 0020071 241.0452 267.2413  2.13103229113519
COSMOS 2475 [GLONASS-M] 
1 37869U 11064C   26156.29294414 -.00000008  00000+0  00000+0 0  9997
2 37869  65.2772  73.3732 0025997 253.8433 281.4335  2.13102052113512
